"{\n    \"CCSDS_OMM_VERS\": \"2.0\",\n    \"COMMENT\": \"GENERATED VIA SPACE-TRACK.ORG API\",\n    \"CREATION_DATE\": \"2025-08-31T02:26:50\",\n    \"ORIGINATOR\": \"18 SPCS\",\n    \"OBJECT_NAME\": \"NAVSTAR 51 (USA 166)\",\n    \"OBJECT_ID\": \"2003-005A\",\n    \"CENTER_NAME\": \"EARTH\",\n    \"REF_FRAME\": \"TEME\",\n    \"TIME_SYSTEM\": \"UTC\",\n    \"MEAN_ELEMENT_THEORY\": \"SGP4\",\n    \"EPOCH\": \"2025-08-30T22:53:30.213024\",\n    \"MEAN_MOTION\": \"2.0055013044\",\n    \"ECCENTRICITY\": \"0.014371427\",\n    \"INCLINATION\": \"54.955417\",\n    \"RA_OF_ASC_NODE\": \"226.50179\",\n    \"ARG_OF_PERICENTER\": \"50.525205\",\n    \"MEAN_ANOMALY\": \"320.66173\",\n    \"EPHEMERIS_TYPE\": \"0\",\n    \"CLASSIFICATION_TYPE\": \"U\",\n    \"NORAD_CAT_ID\": \"27663\",\n    \"ELEMENT_SET_NO\": \"999\",\n    \"REV_AT_EPOCH\": \"16549\",\n    \"BSTAR\": \"0\",\n    \"MEAN_MOTION_DOT\": \"0.000000660709\",\n    \"MEAN_MOTION_DDOT\": \"0\",\n    \"TLE_LINE0\": \"0 NAVSTAR 51 (USA 166)\",\n    \"TLE_LINE1\": \"1 27663U 03005A   25242.95382191  .00000066  00000-0  00000-0 0  9997\",\n    \"TLE_LINE2\": \"2 27663  54.9554 226.5018 0143714  50.5252 320.6617  2.00550130165497\",\n    \"SEMIMAJOR_AXIS\": \"26561.537\",\n    \"PERIOD\": \"718.025\",\n    \"APOAPSIS\": \"20565.130\",\n    \"PERIAPSIS\": \"19801.675\",\n    \"OBJECT_TYPE\": \"PAYLOAD\",\n    \"DECAYED\": \"0\"\n}"